[{"OBJECT_NAME":"STARLINK-32097","OBJECT_ID":"2024-136Y","EPOCH":"2026-03-09T10:54:45.211680","MEAN_MOTION":15.30191854,"ECCENTRICITY":0.00011834,"INCLINATION":53.1604,"RA_OF_ASC_NODE":76.3923,"ARG_OF_PERICENTER":76.496,"MEAN_ANOMALY":283.6173,"EPHEMERIS_TYPE":0,"CLASSIFICATION_TYPE":"U","NORAD_CAT_ID":60351,"ELEMENT_SET_NO":999,"REV_AT_EPOCH":8963,"BSTAR":2.300021e-5,"MEAN_MOTION_DOT":3.22e-6,"MEAN_MOTION_DDOT":0},{"OBJECT_NAME":"KUIPER-00252","OBJECT_ID":"2025-301AA","EPOCH":"2026-03-09T22:00:01.999584","MEAN_MOTION":15.32961042,"ECCENTRICITY":0.00108625,"INCLINATION":51.8682,"RA_OF_ASC_NODE":64.6463,"ARG_OF_PERICENTER":55.9089,"MEAN_ANOMALY":330.8749,"EPHEMERIS_TYPE":0,"CLASSIFICATION_TYPE":"U","NORAD_CAT_ID":67157,"ELEMENT_SET_NO":999,"REV_AT_EPOCH":542,"BSTAR":-0.017504489,"MEAN_MOTION_DOT":-0.00529484,"MEAN_MOTION_DDOT":0}]
